# From MPEC 2026-FC3
404P/Bressi,e,9.8037,260.0310,168.7696,4.715336,0.0962576,0.12367537,85.6107,04/06.0/2026,2000,g 10.0,4.0
# From MPC191631
406P/Gibbs,e,1.2099,11.4910,352.4299,3.580337,0.1454850,0.54078004,295.2578,04/06.0/2026,2000,g 17.0,4.0
# From MPC191631
407P/PANSTARRS-Fuls,e,4.8720,80.2330,92.9749,3.494239,0.1508951,0.37512620,343.3390,04/06.0/2026,2000,g 14.0,4.0
# From MPC191631
408P/Novichonok-Gerke,e,19.3463,189.4512,226.7496,4.747401,0.0952840,0.26803976,121.7870,04/06.0/2026,2000,g 11.0,4.0
# From MPC191631
410P/NEAT-LINEAR,e,9.3889,139.8863,313.3869,6.657822,0.0573728,0.51154031,100.1766,04/06.0/2026,2000,g 12.5,4.0
# From MPC191632
412P/WISE,e,8.9284,0.8190,155.8192,3.113259,0.1794242,0.47911071,350.2139,04/06.0/2026,2000,g 17.0,4.0
# From MPC191632
413P/Larson,e,15.9494,38.9330,186.6586,3.737872,0.1363852,0.41734124,235.7515,04/06.0/2026,2000,g 14.0,4.0
# From MPC191632
414P/STEREO,e,23.4060,257.8155,210.7149,2.792586,0.2112002,0.81228121,40.4842,04/06.0/2026,2000,g 19.0,4.0
# From MPC191632
415P/Tenagra,e,31.8171,160.2582,345.9533,4.106866,0.1184236,0.19582246,222.0603,04/06.0/2026,2000,g 12.0,4.0
# From MPC191632
416P/Scotti,e,3.3645,355.7201,134.4961,4.005457,0.1229493,0.45570267,230.3021,04/06.0/2026,2000,g 15.5,4.0
# From MPC191632
417P/NEOWISE,e,11.3346,95.2598,142.0879,3.385145,0.1582480,0.53574617,295.0957,04/06.0/2026,2000,g 16.5,4.0
# From MPC191632
418P/LINEAR,e,5.7872,277.2463,307.6597,5.087056,0.0859022,0.66435586,140.2311,04/06.0/2026,2000,g 13.0,4.0
# From MPC191632
419P/PANSTARRS,e,2.7902,40.3482,187.6633,3.539909,0.1479844,0.27203634,241.3420,04/06.0/2026,2000,g 12.5,4.0
# From MPC191632
420P/Hill,e,14.5379,173.2819,156.4059,5.470038,0.0770404,0.49469307,109.5118,04/06.0/2026,2000,g 11.5,4.0
# From MPC191633
422P/Christensen,e,39.5799,36.0076,304.7159,6.271037,0.0627617,0.50527638,97.1181,04/06.0/2026,2000,g 11.0,4.0
# From MPC191633
423P/Lemmon,e,8.3396,33.2979,81.2210,6.186091,0.0640589,0.12274892,105.6338,04/06.0/2026,2000,g  8.0,4.0
# From MPC191633
425P/Kowalski,e,16.4055,210.0939,201.0331,6.354595,0.0615279,0.54328645,102.0447,04/06.0/2026,2000,g 12.0,4.0
# From MPC191633
426P/PANSTARRS,e,17.7840,280.3956,118.3866,3.186322,0.1732885,0.16079120,162.7179,04/06.0/2026,2000,g 13.5,4.0
# From MPC191633
427P/ATLAS,e,11.8650,252.3244,99.6103,3.163558,0.1751622,0.31520599,195.3022,04/06.0/2026,2000,g 14.0,4.0
# From MPC191633
428P/Gibbs,e,8.5024,299.3046,36.8693,3.489533,0.1512004,0.51806668,270.6505,04/06.0/2026,2000,g 15.0,4.0
# From MPC191633
429P/LINEAR-Hill,e,7.5140,321.9948,75.7539,3.556681,0.1469389,0.49047814,228.5206,04/06.0/2026,2000,g 15.5,4.0
# From MPC191633
430P/Scotti,e,4.4763,54.6350,94.4920,3.102418,0.1803656,0.50052735,285.7998,04/06.0/2026,2000,g 16.5,4.0
# From MPC191633
431P/Scotti,e,22.3722,202.8254,200.0159,3.477680,0.1519741,0.47703566,229.8965,04/06.0/2026,2000,g 14.0,4.0
# From MPC191634
432P/PANSTARRS,e,10.0665,239.1297,105.2192,3.038936,0.1860466,0.24070716,312.8674,04/06.0/2026,2000,g 17.0,4.0
# From MPC191634
434P/Tenagra,e,6.3365,288.9090,128.4859,4.137347,0.1171173,0.27391474,189.9831,04/06.0/2026,2000,g 13.0,4.0
# From MPC191634
435P/PANSTARRS,e,18.8744,98.5238,244.1691,3.022218,0.1875925,0.31744780,321.8051,04/06.0/2026,2000,g 17.0,4.0
# From MPC191634
437P/Lemmon-PANSTARRS,e,3.6883,245.8426,207.1547,4.570921,0.1008552,0.25484240,133.5709,04/06.0/2026,2000,g 13.0,4.0
# From MPC191634
438P/Christensen,e,8.2806,260.1101,58.9369,3.853990,0.1302681,0.41409552,286.1370,04/06.0/2026,2000,g 14.5,4.0
# From MPC191634
439P/LINEAR,e,7.1113,56.4001,342.1403,3.492393,0.1510148,0.46879044,254.2858,04/06.0/2026,2000,g 13.5,4.0
# From MPC191634
441P/PANSTARRS,e,2.5747,143.5877,178.8201,4.130455,0.1174106,0.19432226,24.5247,04/06.0/2026,2000,g 13.5,4.0
# From MPC191634
442P/McNaught,e,6.0597,31.8473,310.5971,4.948468,0.0895360,0.53285024,118.9160,04/06.0/2026,2000,g 13.5,4.0
# From MPC191635
443P/PANSTARRS-Christensen,e,19.8882,108.9320,145.0102,4.124154,0.1176797,0.28277343,150.0858,04/06.0/2026,2000,g 13.5,4.0
# From MPC191635
445P/Lemmon-PANSTARRS,e,1.0896,126.6028,213.0502,4.042907,0.1212449,0.41482849,161.1486,04/06.0/2026,2000,g 15.0,4.0
# From MPC191635
447P/Sheppard-Tholen,e,7.4418,302.6389,97.2673,5.621394,0.0739500,0.17682533,98.4670,04/06.0/2026,2000,g 12.0,4.0
# From MPC191635
448P/PANSTARRS,e,12.1420,161.7456,218.8048,3.637320,0.1420796,0.41778206,185.9037,04/06.0/2026,2000,g 16.0,4.0
# From MPC191635
449P/Leonard,e,15.4671,242.5140,176.7887,3.599417,0.1443297,0.47963652,282.4502,04/06.0/2026,2000,g 16.0,4.0
# From MPEC 2026-FR0
450P/LONEOS,e,11.0956,123.7723,29.2131,7.707213,0.0460636,0.30266785,343.4748,04/06.0/2026,2000,g  6.5,4.0
# From MPC191635
451P/Christensen,e,26.4883,300.8606,186.8415,6.353546,0.0615432,0.55931382,75.3750,04/06.0/2026,2000,g 13.5,4.0
# From MPC191635
452P/Sheppard-Jewitt,e,6.4226,123.6588,37.1479,7.315817,0.0498092,0.42887864,53.5702,04/06.0/2026,2000,g  9.0,4.0
# From MPC191636
453P/WISE-Lemmon,e,27.0497,42.8795,70.9439,5.469681,0.0770479,0.58315968,87.0228,04/06.0/2026,2000,g 14.0,4.0
# From MPC191636
454P/PANSTARRS,e,19.8037,54.5862,20.2423,4.212855,0.1139828,0.36114189,153.8045,04/06.0/2026,2000,g 14.0,4.0
# From MPC191636
455P/PANSTARRS,e,14.1334,146.1721,237.5320,3.154157,0.1759459,0.30411646,199.9727,04/06.0/2026,2000,g 17.0,4.0
# From MPC191636
456P/PANSTARRS,e,16.9651,243.1367,232.9823,3.168498,0.1747527,0.11554913,62.2552,04/06.0/2026,2000,g 13.5,4.0
# From MPC191636
457P/Lemmon-PANSTARRS,e,5.2256,175.9601,104.3124,2.645255,0.2290883,0.11817860,136.1004,04/06.0/2026,2000,g 15.5,4.0
# From MPC191636
458P/Jahn,e,13.6217,1.5388,105.0004,3.859853,0.1299714,0.31720403,162.8415,04/06.0/2026,2000,g 14.0,4.0
# From MPC191636
459P/Catalina,e,7.1722,256.9827,205.2479,3.240540,0.1689577,0.57784682,192.4521,04/06.0/2026,2000,g 15.5,4.0
# From MPC191636
461P/WISE,e,18.3936,194.3684,174.8202,3.144982,0.1767164,0.56936257,290.7026,04/06.0/2026,2000,g 18.5,4.0
# From MPC191637
464P/PANSTARRS,e,21.6733,309.5774,267.4651,4.682421,0.0972744,0.28087862,110.2735,04/06.0/2026,2000,g 10.5,4.0
# From MPC191637
465P/Hill,e,25.8631,217.9108,140.9512,6.000820,0.0670484,0.61284722,71.3165,04/06.0/2026,2000,g 12.5,4.0
# From MPC191637
466P/PANSTARRS,e,16.9523,114.9702,196.1010,3.951784,0.1254626,0.46536701,140.3099,04/06.0/2026,2000,g 14.0,4.0
# From MPC191637
467P/LINEAR-Grauer,e,2.4796,43.2616,266.9669,5.822847,0.0701457,0.05410846,86.5096,04/06.0/2026,2000,g  9.0,4.0
# From MPC191637
468P/SidingSpring,e,50.4576,356.1344,322.5313,7.112071,0.0519649,0.44458918,45.0699,04/06.0/2026,2000,g 11.5,4.0
# From MPC191637
469P/PANSTARRS,e,20.1702,178.9622,43.4967,4.344482,0.1088422,0.30831672,12.9093,04/06.0/2026,2000,g 13.5,4.0
# From MPC191637
470P/PANSTARRS,e,8.8440,246.1546,151.6221,4.460781,0.1046135,0.38916659,88.0551,04/06.0/2026,2000,g 15.5,4.0
# From MPC191637
471P/LINEAR-Lemmon,e,4.7965,283.3066,94.6900,5.684149,0.0727287,0.62750472,60.9842,04/06.0/2026,2000,g 12.0,4.0
# From MPEC 2026-E44
472P/NEAT-LINEAR,e,10.8291,205.7868,218.7751,7.754666,0.0456414,0.56341131,28.8298,04/06.0/2026,2000,g 10.5,4.0
# From MPC191638
473P/NEAT,e,56.8742,22.1913,42.9534,7.973960,0.0437717,0.82352869,33.6966,04/06.0/2026,2000,g 13.5,4.0
# From MPC191638
474P/Hogan,e,1.0967,26.7521,11.2690,3.131249,0.1778802,0.18776100,177.1075,04/06.0/2026,2000,g 15.5,4.0
# From MPC191638
475P/Spacewatch-LINEAR,e,14.5246,147.3481,40.4425,7.322888,0.0497371,0.44319848,33.4775,04/06.0/2026,2000,g 11.0,4.0
# From MPC191638
476P/PANSTARRS,e,19.0050,57.0500,46.7612,4.774970,0.0944600,0.34573662,50.6734,04/06.0/2026,2000,g 12.5,4.0
# From MPC191638
477P/PANSTARRS,e,8.9141,59.1361,305.8431,3.001288,0.1895582,0.41761861,157.6437,04/06.0/2026,2000,g 14.5,4.0
# From MPC191638
478P/ATLAS,e,12.5256,127.2573,13.2916,3.648998,0.1413981,0.34383888,99.4933,04/06.0/2026,2000,g 13.5,4.0
# From MPC191638
480P/PANSTARRS,e,13.7142,229.9864,214.5074,4.612744,0.0994867,0.24610943,107.2413,04/06.0/2026,2000,g 12.0,4.0
# From MPC191638
481P/Lemmon-PANSTARRS,e,6.0825,93.5518,356.8760,4.683765,0.0972325,0.34330326,97.3821,04/06.0/2026,2000,g 13.5,4.0
# From MPC191638
482P/PANSTARRS,e,24.4902,126.0695,339.7627,3.757704,0.1353070,0.49229355,140.5425,04/06.0/2026,2000,g 13.5,4.0
# From MPC191639
483P/PANSTARRS,e,14.1778,198.8460,49.8765,3.193749,0.1726843,0.22146332,258.7806,04/06.0/2026,2000,g 16.5,4.0
# From MPC186638
483P-A/PANSTARRS,e,14.1778,198.8461,49.8767,3.193749,0.1726843,0.22146371,258.7802,04/06.0/2026,2000,g 13.5,4.0
# From MPC185666
483P-B/PANSTARRS,e,14.1786,198.8456,49.8675,3.193664,0.1726912,0.22140746,258.8169,04/06.0/2026,2000,g 17.0,4.0
# From MPC191639
484P/Spacewatch,e,14.4745,265.3599,240.8591,3.755637,0.1354187,0.43323976,264.5982,04/06.0/2026,2000,g 16.0,4.0
# From MPC191639
485P/Sheppard-Tholen,e,10.0158,261.6472,196.1748,6.854216,0.0549247,0.41711300,52.4220,04/06.0/2026,2000,g 13.0,4.0
# From MPEC 2026-E43
486P/Leonard,e,2.2098,219.0231,93.9324,3.626576,0.1427115,0.36330943,52.4065,04/06.0/2026,2000,g 14.5,4.0
# From MPC191639
487P/SidingSpring,e,39.3661,49.2009,0.8367,5.159679,0.0840950,0.64824461,44.7803,04/06.0/2026,2000,g 13.5,4.0
# From MPC191639
488P/NEAT-PANSTARRS,e,11.6232,322.9195,3.5513,3.775225,0.1343662,0.55067137,91.9967,04/06.0/2026,2000,g 16.5,4.0
# From MPEC 2024-Q14
489P/Denning,e,4.0260,20.5972,109.4190,4.423989,0.1059212,0.64706987,12.9964,04/06.0/2026,2000,g 15.5,4.0
# From MPC191639
491P/Spacewatch-PANSTARRS,e,9.3672,311.6836,298.8149,5.012334,0.0878302,0.25873281,50.7104,04/06.0/2026,2000,g  9.5,4.0
# From MPEC 2026-E43
492P/LINEAR,e,11.4006,11.3055,40.9793,5.757160,0.0713496,0.69041026,44.5700,04/06.0/2026,2000,g 15.0,4.0
# From MPEC 2026-FR0
493P/LONEOS,e,24.1075,1.0568,83.2644,7.184322,0.0511830,0.46787576,4.1877,04/06.0/2026,2000,g  8.5,4.0
# From MPC191640
494P/PANSTARRS,e,7.7894,245.0442,48.8910,3.794404,0.1333487,0.35652897,90.0322,04/06.0/2026,2000,g 16.0,4.0
# From MPEC 2026-E43
